CUTE-1 (CO-55)          
1 27844U 03031E   26198.45437377  .00000130  00000+0  74903-4 0  9998
2 27844  98.6744 206.6332 0010863  96.8604 263.3811 14.24352364195988
CUBESAT XI-IV (CO-57)   
1 27848U 03031J   26198.45804685  .00000106  00000+0  65800-4 0  9991
2 27848  98.6776 206.3252 0010618 113.4163 246.8133 14.23635260195687
CUBESAT XI-V            
1 28895U 05043F   26197.95849456  .00000631  00000+0  10709-3 0  9998
2 28895  98.3017 354.2118 0015312 110.0551 250.2305 14.72704810106133
CUTE-1.7+APD II (CO-65) 
1 32785U 08021C   26198.67334126  .00002060  00000+0  13197-3 0  9995
2 32785  97.8298 180.7354 0006860 289.3603  70.6883 15.09713256989792
CANX-2                  
1 32790U 08021H   26198.39217681  .00001181  00000+0  85951-4 0  9997
2 32790  97.8658 178.7645 0008589 309.3360  50.7104 15.05812712989351
SEEDS II (CO-66)        
1 32791U 08021J   26198.41728183  .00010001  00000+0  30928-3 0  9999
2 32791  97.7528 197.7827 0003325 151.8458 208.2964 15.33712210991924
SWISSCUBE               
1 35932U 09051B   26198.68225147  .00000433  00000+0  95101-4 0  9997
2 35932  98.4004 107.0987 0007946 112.4041 247.8002 14.62533257893618
BEESAT-1                
1 35933U 09051C   26198.70764304  .00000353  00000+0  80631-4 0  9997
2 35933  98.3931 106.6958 0006241 123.4432 236.7366 14.61763986893649
ITUPSAT1                
1 35935U 09051E   26198.17721015  .00000337  00000+0  79459-4 0  9990
2 35935  98.4015 105.3171 0008204 137.6090 222.5745 14.60480346893117
TISAT 1                 
1 36799U 10035E   26198.61393220  .00011234  00000+0  35734-3 0  9990
2 36799  98.0716 147.8913 0004646 115.3735 244.7987 15.32787813872367
STRAND-1                
1 39090U 13009E   26198.48055263  .00000107  00000+0  50178-4 0  9995
2 39090  98.3936  17.9715 0009516 134.8937 225.3024 14.37179617701414
BRITE-AUSTRIA           
1 39091U 13009F   26198.50657966  .00000060  00000+0  35009-4 0  9991
2 39091  98.4010  17.1942 0010890 144.2011 215.9907 14.36553023701408
NEE-01 PEGASO           
1 39151U 13018B   26198.34294979  .00001397  00000+0  13736-3 0  9997
2 39151  98.1260 343.4984 0013639  68.0697 292.1970 14.93794840715204
POPACS 2                
1 39269U 13055E   26198.49805394  .00014570 -92442-6  23743-3 0  9998
2 39269  80.9912 109.4836 0414730  96.4949 268.3649 14.92080506667733
POPACS 3                
1 39270U 13055F   26198.69021463  .00007576  00000+0  18010-3 0  9999
2 39270  81.0001 196.0961 0548456 337.0545  20.6959 14.56701422642997
ZACUBE-1 (TSHEPISOSAT)  
1 39417U 13066B   26198.46736880  .00001193  00000+0  95678-4 0  9990
2 39417  97.8006 160.9527 0044097 147.9518 212.4401 15.01334450685273
WNISAT-1                
1 39423U 13066H   26197.65127390  .00000571  00000+0  11161-3 0  9990
2 39423  97.7237 344.7215 0163959 138.7515 222.6209 14.58121814671021
TRITON-1                
1 39427U 13066M   26198.68386924  .00000579  00000+0  75018-4 0  9998
2 39427  97.8225 107.7942 0090766 134.1017 226.7712 14.81799268678604
GOMX-1                  
1 39430U 13066Q   26198.62241387  .00000608  00000+0  98269-4 0  9995
2 39430  97.6461  37.1641 0128023 340.3926  19.2381 14.69545680674389
CUBEBUG-2 (LO-74)       
1 39440U 13066AA  26198.60635634  .00001948  00000+0  18322-3 0  9995
2 39440  97.8919 147.7205 0055601 287.2018  72.3120 14.93976531681532
NEE-02 KRYSAOR          
1 39441U 13066AB  26198.29430495  .00001069  00000+0  12208-3 0  9990
2 39441  97.8897 137.2978 0065226 332.3487  27.4265 14.86744048680678
FUNCUBE-1 (AO-73)       
1 39444U 13066AE  26198.34715985  .00004168  00000+0  25766-3 0  9995
2 39444  97.8294 170.4330 0037942 100.7078 259.8426 15.09834376684214
UWE-3                   
1 39446U 13066AG  26198.35863992  .00002054  00000+0  17893-3 0  9994
2 39446  97.8718 154.6426 0047589 217.0557 142.7376 14.97207851682095
BRITE-CA1 (TORONTO)     
1 40020U 14033L   26197.93307810  .00000506  00000+0  83590-4 0  9992
2 40020  97.9774 326.3188 0078575 180.6925 179.4187 14.72724463646592
DUCHIFAT-1              
1 40021U 14033M   26197.69874411  .00099153  00000+0  77546-3 0  9991
2 40021  98.0414 261.1627 0002786 236.8489 123.2505 15.71313651660376
NANOSATC-BR1            
1 40024U 14033Q   26198.05591393  .00010197  00000+0  32893-3 0  9997
2 40024  98.0704 233.1102 0005253  91.9307 268.2534 15.32365382658553
QB50P1                  
1 40025U 14033R   26198.00121204  .00004208  00000+0  20647-3 0  9993
2 40025  98.0964 211.2472 0010459 119.5295 240.6982 15.18681575657555
QB50P2                  
1 40032U 14033Y   26198.27700991  .00004006  00000+0  21521-3 0  9994
2 40032  98.0764 197.0406 0009267  78.0159 282.2110 15.15522510657221
PERSEUS-M2              
1 40037U 14033AD  26198.63920066  .00000129  00000+0  17123-4 0  9992
2 40037  97.9988 149.8048 0011003 190.9799 169.1182 14.95592214655331
PERSEUS-M1              
1 40039U 14033AF  26198.60970735  .00000770  00000+0  74509-4 0  9992
2 40039  97.9655 143.2446 0011067 188.2040 171.9001 14.95720558655181
